PERSEUS-M1              
1 40039U 14033AF  26176.80033404  .00001981  00000+0  18355-3 0  9994
2 40039  97.9648 121.0735 0009802 268.9220  91.0877 14.95660103651928
POLYITAN-1              
1 40042U 14033AJ  26176.60092591  .00023755  00000+0  73319-3 0  9992
2 40042  98.0941 203.6586 0008872 118.2869 241.9268 15.33535945654889
TIGRISAT                
1 40043U 14033AK  26177.14387017  .00001823  00000+0  21435-3 0  9997
2 40043  97.7841 326.9507 0050165  46.5050 314.0319 14.85192644646953
AEROCUBE 6A             
1 40045U 14033AM  26177.17386312  .00004931  00000+0  41456-3 0  9997
2 40045  97.7231 344.0286 0038222 346.8198  13.2022 14.98179733647961
AEROCUBE 6B             
1 40046U 14033AN  26176.70037602  .00005469  00000+0  44228-3 0  9998
2 40046  97.7232 343.3693 0037783 339.5695  20.4014 14.99639437648032
CANX-4                  
1 40055U 14034C   26176.59567202  .00000890  00000+0  12133-3 0  9993
2 40055  98.3112  52.2170 0012515 350.4550   9.6421 14.81278652645778
CANX-5                  
1 40056U 14034D   26177.13439997  .00000864  00000+0  11795-3 0  9998
2 40056  98.3114  52.8196 0012474 348.9380  11.1555 14.81296747636661
UKUBE-1                 
1 40074U 14037F   26177.29114723  .00009660  00000+0  54072-3 0  9993
2 40074  98.4237 181.5200 0003013 118.3387 241.8146 15.13686716649936
BRITE-PL2 (HEWELIUSZ)   
1 40119U 14049B   26177.27734332  .00001816  00000+0  17279-3 0  9991
2 40119  97.9106 289.3476 0015397  80.7286 279.5675 14.94626891642805
AEROCUBE 5C             
1 40965U 15058B   26177.28991305  .00001943  00000+0  17945-3 0  9998
2 40965  64.7653 234.2715 0131197  59.7373 301.6648 14.91487981367014
AEROCUBE 7              
1 40966U 15058C   26177.26021647  .00003412  00000+0  27741-3 0  9998
2 40966  64.7607 216.3960 0120917  58.0976 303.1834 14.95773904367310
FOX-1A (AO-85)          
1 40967U 15058D   26177.27338541  .00002206  00000+0  20421-3 0  9992
2 40967  64.7749 250.7459 0130992  53.0595 308.2430 14.91005511114922
SINOD-D 1               
1 40968U 15058E   26177.30392814  .00003219  00000+0  26209-3 0  9995
2 40968  64.7739 230.3615 0119652  49.4822 311.6641 14.95954423118028
SNAP-3 ALICE            
1 40970U 15058G   26177.27050771  .00150337  00000+0  16354-2 0  9990
2 40970  64.7505  72.4865 0025001   6.2675 353.8779 15.62342422118301
LMRST-SAT               
1 40971U 15058H   26177.29810243  .00001828  00000+0  17298-3 0  9990
2 40971  64.7743 247.0246 0132586  55.0826 306.2659 14.90622958114913
SNAP-3 EDDIE            
1 40972U 15058J   26176.99738703  .00146581  00000+0  15257-2 0  9995
2 40972  64.7418  64.0911 0025478   9.7390 350.4246 15.63466255120403
PROPCUBE 3              
1 40973U 15058K   26177.24437862  .00002788  00000+0  23648-3 0  9991
2 40973  64.7672 224.2367 0124526  56.3400 304.9517 14.94299044116150
BISONSAT                
1 40974U 15058L   26177.26686183  .00016488  00000+0  78594-3 0  9998
2 40974  64.7572 144.2838 0080135  43.5930 317.1488 15.16410925116990
SNAP-3 JIMI             
1 40975U 15058M   26177.30892846  .00006194  00000+0  42456-3 0  9990
2 40975  64.7632 190.9097 0106638  51.7103 309.3546 15.02377578115597
PROPCUBE 1 (FLORA)      
1 40976U 15058N   26176.65702872  .00002194  00000+0  21250-3 0  9992
2 40976  64.7749 268.9851 0131206  57.6197 303.7532 14.89254859117526
SINOD-D 3               
1 40977U 15058P   26177.27751094  .00002931  00000+0  25216-3 0  9997
2 40977  64.7720 247.4321 0119785  54.5205 306.7016 14.94063009116119
HORYU-4                 
1 41340U 16012D   26177.22880192  .01030864  56724-3  12583-2 0  9997
2 41340  30.9829  12.1754 0008624 326.7902  33.2220 16.06920325572262
RAVAN                   
1 41849U 16067B   26177.24537072  .00057736  00000+0  84086-3 0  9995
2 41849  97.9879  67.8689 0002808   0.3600 359.7654 15.55544277529109
CELTEE 1                
1 41850U 16067C   26176.56917890  .00006317  00000+0  29894-3 0  9996
2 41850  98.0670  43.7080 0001423 129.0857 231.0503 15.19757723527155
OPTICUBE 04             
1 41851U 16067D   26177.09335778  .00002161  00000+0  13814-3 0  9993
2 41851  98.0695  29.8416 0017044  87.9925 272.3254 15.09693853526517
AEROCUBE 8D             
1 41852U 16067E   26177.14809934  .00008298  00000+0  34051-3 0  9993
2 41852  98.0682  48.0013 0005022 102.1384 258.0415 15.24514880527433
AEROCUBE 8C             
1 41853U 16067F   26177.17161569  .00009065  00000+0  36880-3 0  9997
2 41853  98.0549  45.2426 0006091  44.4349 315.7375 15.24766784527437
CORVUS BC2              
1 42846U 17042X   26177.22916909  .00003108  00000+0  21484-3 0  9992
2 42846  97.4071 338.2281 0014719  82.6574 277.6326 15.06350510488420
CORVUS BC1              
1 42847U 17042Y   26176.89067538  .00002866  00000+0  19764-3 0  9998
2 42847  97.4097 338.7225 0013203  62.8165 297.4407 15.06511248488400
MAKERSAT 0              
1 43016U 17073D   26175.42911744  .00015733  00000+0  42578-3 0  9992
2 43016  97.4622  58.0052 0104847 246.7219 112.2959 15.32301022467578
